GLOBALSTAR M068         
1 32266U 07048D   24344.92740874 -.00000052  00000+0  28657-3 0  9994
2 32266  51.9857 159.1776 0002105  88.1733  76.4145 12.62811136793647
GLOBALSTAR M079         
1 37188U 10054A   24344.79312985 -.00000084  00000+0  11244-3 0  9995
2 37188  52.0056 356.3337 0000186 167.9065   3.0046 12.62268074652538
GLOBALSTAR M074         
1 37189U 10054B   24344.87504591 -.00000084  00000+0  10987-3 0  9994
2 37189  52.0034 355.4339 0000305  51.8532  12.7035 12.62260054653154
GLOBALSTAR M076         
1 37190U 10054C   24344.76684595 -.00000079  00000+0  13956-3 0  9990
2 37190  52.0049 355.9197 0000156 339.2269 191.9090 12.62274509652850
GLOBALSTAR M077         
1 37191U 10054D   24344.88172921 -.00000079  00000+0  13829-3 0  9998
2 37191  52.0085 312.3721 0000450  51.1331 342.0223 12.62267977653240
GLOBALSTAR M075         
1 37192U 10054E   24344.93844110 -.00000089  00000+0  81513-4 0  9998
2 37192  51.9968  37.7573 0000410 109.2824  63.2509 12.62269902651944
GLOBALSTAR M073         
1 37193U 10054F   24344.91021431 -.00000091  00000+0  69400-4 0  9994
2 37193  52.0073 311.5174 0000352  32.5900  11.7656 12.62273686653938
GLOBALSTAR M083         
1 37739U 11033A   24344.84991682 -.00000082  00000+0  12305-3 0  9995
2 37739  51.9860 260.6923 0000694  76.4235 353.6060 12.62269139622941
GLOBALSTAR M088         
1 37740U 11033B   24344.91927667 -.00000074  00000+0  16796-3 0  9996
2 37740  51.9703 166.1300 0001105  99.8457  46.1291 12.62266396618498
GLOBALSTAR M091         
1 37741U 11033C   24344.85540214 -.00000075  00000+0  16062-3 0  9996
2 37741  51.9978 129.5416 0001148 120.5708  33.8683 12.62271656619272
GLOBALSTAR M085         
1 37742U 11033D   24344.76610704 -.00000090  00000+0  77698-4 0  9999
2 37742  51.9875  81.0176 0000904 133.3564  36.2910 12.62270006619778
GLOBALSTAR M081         
1 37743U 11033E   24344.86471965 -.00000099  00000+0  28739-4 0  9996
2 37743  51.9964  83.3872 0000642 143.8072 354.2850 12.62273927619934
GLOBALSTAR M089         
1 37744U 11033F   24344.91180922 -.00000083  00000+0  11842-3 0  9992
2 37744  51.9950  37.5101 0000199  82.2865  88.9597 12.62273162620784
GLOBALSTAR M084         
1 38040U 11080A   24344.81946858 -.00000072  00000+0  17527-3 0  9995
2 38040  52.0011 264.9785 0000911  43.4059   8.2769 12.62272182598752
GLOBALSTAR M080         
1 38041U 11080B   24344.87706139 -.00000086  00000+0  10192-3 0  9994
2 38041  52.0063 266.3449 0000831  25.6162  47.1182 12.62269737598888
GLOBALSTAR M082         
1 38042U 11080C   24344.95621420 -.00000076  00000+0  15545-3 0  9999
2 38042  52.0057 221.5301 0001319  93.3817 279.5871 12.62270940599608
GLOBALSTAR M092         
1 38043U 11080D   24344.93092868 -.00000080  00000+0  13035-3 0  9993
2 38043  52.0098 311.9722 0000591  53.3735 324.7231 12.62270225598058
GLOBALSTAR M090         
1 38044U 11080E   24344.90345823 -.00000076  00000+0  15325-3 0  9992
2 38044  51.9868 215.7420 0001050  87.6260 285.8418 12.62264776599714
GLOBALSTAR M086         
1 38045U 11080F   24344.93018679 -.00000089  00000+0  82010-4 0  9992
2 38045  51.9877 216.1965 0000149  51.0993 324.3630 12.62264463599662
GLOBALSTAR M097         
1 39072U 13005A   24344.79522369 -.00000080  00000+0  13222-3 0  9991
2 39072  52.0025 130.9614 0000919 118.6028 241.4931 12.62268295546895
GLOBALSTAR M093         
1 39073U 13005B   24344.76826445 -.00000081  00000+0  12667-3 0  9994
2 39073  51.9794 124.6456 0000992 123.2300 236.8662 12.62277117546844
GLOBALSTAR M094         
1 39074U 13005C   24344.84775815 -.00000093  00000+0  57576-4 0  9990
2 39074  51.9979  38.5992 0000538 157.2985 202.7906 12.62265953548468
GLOBALSTAR M096         
1 39075U 13005D   24344.78177004 -.00000086  00000+0  97741-4 0  9990
2 39075  52.0078  87.1657 0000913 137.4259 222.6679 12.62265461547371
GLOBALSTAR M078         
1 39076U 13005E   24344.91321128 -.00000075  00000+0  15969-3 0  9993
2 39076  51.9840 171.5307 0001877 107.5137 252.5935 12.62267551546019
GLOBALSTAR M095         
1 39077U 13005F   24344.86086159 -.00000079  00000+0  13669-3 0  9999
2 39077  51.9770 168.9840 0001477 114.4210 245.6811 12.62269511545865
GLOBALSTAR M087         
1 52888U 22064A   24344.62556169 -.00000073  00000+0  11187-3 0  9993
2 52888  51.9776 317.7864 0035704  39.3940 320.9545 13.30672472120984
